OBJECT_NAME,OBJECT_ID,EPOCH,MEAN_MOTION,ECCENTRICITY,INCLINATION,RA_OF_ASC_NODE,ARG_OF_PERICENTER,MEAN_ANOMALY,EPHEMERIS_TYPE,CLASSIFICATION_TYPE,NORAD_CAT_ID,ELEMENT_SET_NO,REV_AT_EPOCH,BSTAR,MEAN_MOTION_DOT,MEAN_MOTION_DDOT
EYESAT A (AO-27),1993-061C,2026-05-21T03:34:35.639904,14.30933961,.00085497,98.6890,208.5706,172.0697,188.0622,0,U,22825,999,70313,.39806227E-4,.6E-6,0
ITAMSAT (IO-26),1993-061D,2026-05-21T03:16:32.796480,14.31360024,.00093891,98.6837,208.4729,156.5397,203.6216,0,U,22826,999,70344,.35410953E-4,.49E-6,0
RADIO ROSTO (RS15),1994-085A,2026-05-21T01:34:46.122240,11.27583631,.01551889,64.8192,347.0809,8.8611,351.4998,0,U,23439,999,29284,-.23764706E-3,-.51E-6,0
JAS-2 (FO-29),1996-046B,2026-05-21T04:14:20.012928,13.53272915,.03501146,98.5266,353.7450,166.3802,194.7089,0,U,24278,999,46951,.3482948E-4,0,0
FORTE,1997-047A,2026-05-21T06:22:50.152800,14.27932647,.00240189,69.9534,74.8277,310.1913,49.7106,0,U,24920,999,49484,.69136795E-4,.114E-5,0
TECHSAT 1B (GO-32),1998-043D,2026-05-21T05:33:22.737024,14.24422407,.00005512,99.0064,133.3117,351.2670,8.8498,0,U,25397,999,44749,.2827929E-4,.19E-6,0
ISS (ZARYA),1998-067A,2026-05-21T03:57:45.045216,15.49291753,.00075289,51.6328,73.8715,81.3651,278.8190,0,U,25544,999,56756,.11282021E-3,.5835E-4,0
IMAGE,2000-017A,2026-05-20T09:48:00.949248,1.68665746,.74524778,94.2067,315.0050,290.9630,8.3365,0,U,26113,999,16103,.33926204E-1,.106E-5,0
CLUSTER II-FM7 (SAMBA),2000-041A,2026-05-23T14:16:45.983424,0.44823860,.90264729,149.8701,46.5713,263.4194,0.0915,0,U,26410,999,2019,0,.2941E-4,0
CLUSTER II-FM8 (TANGO),2000-045B,2026-05-23T15:37:47.085888,0.44399646,.90299617,150.1173,47.5958,264.3022,0.1110,0,U,26464,999,2018,0,.3021E-4,0
ODIN,2001-007A,2026-05-21T02:16:38.229024,15.67550008,.00038986,97.3895,180.4641,176.0695,184.0597,0,U,26702,999,38514,.79616382E-3,.87098E-3,0
OMNI-M1,2001-026A,2026-05-19T10:28:09.458112,3.92401339,.00151862,44.8407,251.8908,48.7845,311.3788,0,U,26857,999,20444,0,-.14E-6,0
PCSAT (NO-44),2001-043C,2026-05-21T04:46:24.331008,14.31944379,.0006212,67.0507,314.0755,263.7257,96.3138,0,U,26931,999,28658,.58744103E-4,.74E-6,0
PROBA-1,2001-049B,2026-05-21T07:39:50.290848,15.07374130,.00540477,97.9600,148.9161,212.3676,147.4231,0,U,26958,999,33957,.25560522E-4,.326E-5,0
SAUDISAT 1C (SO-50),2002-058C,2026-05-21T05:58:53.521248,14.82983020,.00755961,64.5520,212.3264,267.4106,91.8345,0,U,27607,999,26046,.85865766E-4,.576E-5,0
CORIOLIS,2003-001A,2026-05-21T06:42:26.721216,14.19936645,.00128565,98.7132,148.5750,292.4787,67.5027,0,U,27640,999,21040,.48562371E-4,.59E-6,0
CUTE-1 (CO-55),2003-031E,2026-05-20T23:47:47.561280,14.24316869,.00082937,98.6743,149.8926,263.7323,96.2911,0,U,27844,999,18780,.92343964E-4,.169E-5,0
CUBESAT XI-IV (CO-57),2003-031J,2026-05-20T23:11:33.957600,14.23604415,.00082317,98.6774,149.6022,285.2737,74.7531,0,U,27848,999,18750,.81780703E-4,.143E-5,0
MOZHAETS 4 (RS22),2003-042A,2026-05-21T07:58:10.179264,14.73412047,.00112859,98.3467,324.9332,0.9726,123.2301,0,U,27939,999,21159,.34814242E-4,.172E-5,0
