EYESAT A (AO-27)        
1 22825U 93061C   26141.14902361  .00000060  00000+0  39806-4 0  9993
2 22825  98.6890 208.5706 0008549 172.0697 188.0622 14.30933961703137
ITAMSAT (IO-26)         
1 22826U 93061D   26141.13649070  .00000049  00000+0  35411-4 0  9993
2 22826  98.6837 208.4729 0009389 156.5397 203.6216 14.31360024703442
RADIO ROSTO (RS15)      
1 23439U 94085A   26141.06581160 -.00000051  00000+0 -23765-3 0  9991
2 23439  64.8192 347.0809 0155188   8.8611 351.4998 11.27583631292847
JAS-2 (FO-29)           
1 24278U 96046B   26141.17662052  .00000000  00000+0  34829-4 0  9990
2 24278  98.5266 353.7450 0350114 166.3802 194.7089 13.53272915469519
FORTE                   
1 24920U 97047A   26141.26585825  .00000114  00000+0  69137-4 0  9994
2 24920  69.9534  74.8277 0024018 310.1913  49.7106 14.27932647494844
TECHSAT 1B (GO-32)      
1 25397U 98043D   26141.23151316  .00000019  00000+0  28279-4 0  9997
2 25397  99.0064 133.3117 0000551 351.2670   8.8498 14.24422407447495
ISS (ZARYA)             
1 25544U 98067A   26141.16510469  .00005835  00000+0  11282-3 0  9993
2 25544  51.6328  73.8715 0007528  81.3651 278.8190 15.49291753567564
IMAGE                   
1 26113U 00017A   26140.40834432  .00000106  00000+0  33926-1 0  9992
2 26113  94.2067 315.0050 7452477 290.9630   8.3365  1.68665746161037
CLUSTER II-FM7 (SAMBA)  
1 26410U 00041A   26143.59497666  .00002941  00000+0  00000+0 0  9990
2 26410 149.8701  46.5713 9026472 263.4194   0.0915  0.44823860 20192
CLUSTER II-FM8 (TANGO)  
1 26464U 00045B   26143.65123942  .00003021  00000+0  00000+0 0  9993
2 26464 150.1173  47.5958 9029961 264.3022   0.1110  0.44399646 20184
ODIN                    
1 26702U 01007A   26141.09488691  .00087098  00000+0  79616-3 0  9997
2 26702  97.3895 180.4641 0003898 176.0695 184.0597 15.67550008385148
OMNI-M1                 
1 26857U 01026A   26139.43622058 -.00000014  00000+0  00000+0 0  9992
2 26857  44.8407 251.8908 0015186  48.7845 311.3788  3.92401339204446
PCSAT (NO-44)           
1 26931U 01043C   26141.19889272  .00000074  00000+0  58744-4 0  9991
2 26931  67.0507 314.0755 0006212 263.7257  96.3138 14.31944379286580
PROBA-1                 
1 26958U 01049B   26141.31933207  .00000326  00000+0  25561-4 0  9999
2 26958  97.9600 148.9161 0054047 212.3676 147.4231 15.07374130339570
SAUDISAT 1C (SO-50)     
1 27607U 02058C   26141.24923057  .00000576  00000+0  85866-4 0  9997
2 27607  64.5520 212.3264 0075596 267.4106  91.8345 14.82983020260469
CORIOLIS                
1 27640U 03001A   26141.27947594  .00000059  00000+0  48562-4 0  9996
2 27640  98.7132 148.5750 0012856 292.4787  67.5027 14.19936645210404
CUTE-1 (CO-55)          
1 27844U 03031E   26140.99152270  .00000169  00000+0  92344-4 0  9991
2 27844  98.6743 149.8926 0008293 263.7323  96.2911 14.24316869187807
CUBESAT XI-IV (CO-57)   
1 27848U 03031J   26140.96636525  .00000143  00000+0  81781-4 0  9997
2 27848  98.6774 149.6022 0008231 285.2737  74.7531 14.23604415187502
MOZHAETS 4 (RS22)       
1 27939U 03042A   26141.33206226  .00000172  00000+0  34814-4 0  9990
2 27939  98.3467 324.9332 0011285   0.9726 123.2301 14.73412047211599
